COSMOS 2433 (720)       
1 32275U 07052A   24021.40228999 -.00000084  00000+0  00000+0 0  9996
2 32275  65.9854 345.3073 0004664 272.5484  87.3901  2.13103961126356
COSMOS 2432 (719)       
1 32276U 07052B   24021.70949764 -.00000085  00000+0  00000+0 0  9991
2 32276  65.9999 345.4083 0012122 320.9759 221.2988  2.13103254126382
COSMOS 2434 (721)       
1 32393U 07065A   24021.32009441  .00000111  00000+0  00000+0 0  9991
2 32393  64.3261 221.5873 0005119  74.6439 113.9169  2.13103100125066
COSMOS 2436 (723)       
1 32395U 07065C   24020.50970748  .00000112  00000+0  00000+0 0  9990
2 32395  64.3350 221.6778 0017288   9.3479  52.8456  2.13102762125008
COSMOS 2456 (730)       
1 36111U 09070A   24021.30566847 -.00000050  00000+0  00000+0 0  9990
2 36111  64.5466 101.0335 0004099 295.7184  38.8224  2.13098908109711
COSMOS 2457 (733)       
1 36112U 09070B   24021.16021722 -.00000051  00000+0  00000+0 0  9994
2 36112  64.5308 100.9005 0004840 175.9264 178.9140  2.13101098109719
COSMOS 2460 (732)       
1 36402U 10007C   24021.87688289 -.00000087  00000+0  00000+0 0  9992
2 36402  65.8446 343.9832 0002638 309.5291 225.1903  2.13106191108038
COSMOS 2476 (744)       
1 37867U 11064A   24021.42177000 -.00000050  00000+0  00000+0 0  9997
2 37867  64.8236 102.6094 0023739 236.1489  97.9935  2.13101606 95052
COSMOS 2477 (745)       
1 37868U 11064B   24021.28896411 -.00000050  00000+0  00000+0 0  9996
2 37868  64.8307 102.6848 0020921 236.9078 173.1493  2.13101391 95058
COSMOS 2475 (743)       
1 37869U 11064C   24021.33672568 -.00000050  00000+0  00000+0 0  9998
2 37869  64.8379 102.6967 0025537 252.1775 153.1202  2.13101577 95065
COSMOS 2485 (747)       
1 39155U 13019A   24021.39738923 -.00000050  00000+0  00000+0 0  9994
2 39155  64.9827 103.1634 0024072 232.3381 127.4764  2.13101633 83570
COSMOS 2492 (754)       
1 39620U 14012A   24021.35279921 -.00000085  00000+0  00000+0 0  9997
2 39620  65.7275 343.5992 0015140 318.6213  41.2556  2.13103079 76534
COSMOS 2500 (755)       
1 40001U 14032A   24020.12645386 -.00000079  00000+0  00000+0 0  9993
2 40001  65.6658 343.4572 0006529 226.3250 133.6156  2.13105961 74726
COSMOS 2501 (702K)      
1 40315U 14075A   24021.78588686  .00000108  00000+0  00000+0 0  9992
2 40315  63.6288 220.8029 0018026 203.3909 156.5768  2.13101319 71157
COSMOS 2514 (751)       
1 41330U 16008A   24021.29827260 -.00000086  00000+0  00000+0 0  9994
2 41330  65.4613 342.9644 0010475 225.6435 134.2628  2.13102573 61911
COSMOS 2522 (752)       
1 42939U 17055A   24021.60877373  .00000110  00000+0  00000+0 0  9995
2 42939  64.0895 221.8149 0005227 230.3996 129.6061  2.13101921 49273
COSMOS 2527 (756)       
1 43508U 18053A   24021.56752397 -.00000049  00000+0  00000+0 0  9992
2 43508  65.1435 103.2790 0009314 231.1245 128.8258  2.13102314 43573
COSMOS 2529 (757)       
1 43687U 18086A   24021.19757621  .00000111  00000+0  00000+0 0  9999
2 43687  64.3053 222.3020 0006604 265.7254  94.2519  2.13102029 40575
COSMOS 2534 (758)       
1 44299U 19030A   24021.49702244  .00000110  00000+0  00000+0 0  9992
2 44299  64.3777 222.2311 0009328 293.0033  70.9000  2.13101987 36220
COSMOS 2544 (759)       
1 44850U 19088A   24021.51140347 -.00000049  00000+0  00000+0 0  9993
2 44850  65.1297 103.1210 0014064 254.4330 105.4452  2.13102072 32012
COSMOS 2545 (760)       
1 45358U 20018A   24021.23900305 -.00000087  00000+0  00000+0 0  9991
2 45358  64.8019 343.0981 0010727 258.0789 101.7932  2.13102508 29959
COSMOS 2547 (705K)      
1 46805U 20075A   24020.95813735  .00000112  00000+0  00000+0 0  9998
2 46805  64.6059 221.8469 0005310 235.1713 124.8309  2.13102929 25191
COSMOS 2557 (706K)      
1 52984U 22075A   24020.18304534 -.00000080  00000+0  00000+0 0  9997
2 52984  64.7234 345.2795 0013838 283.8346  76.0065  2.13101765 11987
COSMOS 2559 (707K)      
1 54031U 22130A   24020.12547841 -.00000080  00000+0  00000+0 0  9998
2 54031  64.6948 345.4044 0006900 239.1991 120.7284  2.13101070  9957
COSMOS 2564 (761)       
1 54377U 22161A   24021.25633752  .00000112  00000+0  00000+0 0  9992
2 54377  64.7469 221.9149 0007197 206.0993 153.9168  2.13102126  8925
COSMOS 2569 (703K)      
1 57517U 23114A   24021.27474531 -.00000050  00000+0  00000+0 0  9992
2 57517  64.8543 102.3320 0011131 291.4166  68.4987  2.13104267  3555
